KUIPER-00008            
1 63724U 25088A   25244.34256322  .00007659  00000+0  64669-3 0  9999
2 63724  51.8892 230.2704 0010730 178.2568 181.8442 14.98929691 19650
KUIPER-00009            
1 63725U 25088B   25244.58335648 -.00031382  00000+0 -41044-2 0  9998
2 63725  51.9007 222.8298 0012215 195.1388 265.0412 14.79895960  5098
KUIPER-00010            
1 63726U 25088C   25244.30392706  .00027081  00000+0  74399-3 0  9996
2 63726  51.8620 213.3388 0008391 193.5282 166.5481 15.36997696 19504
KUIPER-00011            
1 63727U 25088D   25244.58335648 -.01433809  00000+0 -66224-1 0  9997
2 63727  51.8646 213.0352 0008889 194.2435  49.1535 15.23080725  5223
KUIPER-00012            
1 63728U 25088E   25244.33657237  .00028032  00000+0  77577-3 0  9992
2 63728  51.8543 213.4497 0009645 204.4027 155.6504 15.36740004 19597
KUIPER-00013            
1 63729U 25088F   25244.56208005 -.00044909  00000+0 -60013-2 0  9992
2 63729  51.9007 224.3745 0008547 133.5803 226.5870 14.79196170 19561
KUIPER-00014            
1 63730U 25088G   25243.68423609  .00002732  00000+0  38796-3 0  9995
2 63730  51.9011 229.2366 0008129 180.3305 179.7653 14.79851060 19232
KUIPER-00015            
1 63731U 25088H   25244.24218240  .00001243  00000+0  18671-3 0  9998
2 63731  51.8985 238.9554 0010473 169.9897 190.1276 14.81233569 19602
