<?xml version="1.0" encoding="UTF-8"?>
<ndm xmlns:xsi="http://www.w3.org/2001/XMLSchema-instance" xsi:noNamespaceSchemaLocation="https://sanaregistry.org/r/ndmxml_unqualified/ndmxml-2.0.0-master-2.0.xsd">
<omm id="CCSDS_OMM_VERS" version="2.0">
<header><CREATION_DATE/><ORIGINATOR/></header><body><segment><metadata><OBJECT_NAME>KUIPER-00008</OBJECT_NAME><OBJECT_ID>2025-088A</OBJECT_ID><CENTER_NAME>EARTH</CENTER_NAME><REF_FRAME>TEME</REF_FRAME><TIME_SYSTEM>UTC</TIME_SYSTEM><MEAN_ELEMENT_THEORY>SGP4</MEAN_ELEMENT_THEORY></metadata><data><meanElements><EPOCH>2025-09-01T08:13:17.462208</EPOCH><MEAN_MOTION>14.98929691</MEAN_MOTION><ECCENTRICITY>.00107304</ECCENTRICITY><INCLINATION>51.8892</INCLINATION><RA_OF_ASC_NODE>230.2704</RA_OF_ASC_NODE><ARG_OF_PERICENTER>178.2568</ARG_OF_PERICENTER><MEAN_ANOMALY>181.8442</MEAN_ANOMALY></meanElements><tleParameters><EPHEMERIS_TYPE>0</EPHEMERIS_TYPE><CLASSIFICATION_TYPE>U</CLASSIFICATION_TYPE><NORAD_CAT_ID>63724</NORAD_CAT_ID><ELEMENT_SET_NO>999</ELEMENT_SET_NO><REV_AT_EPOCH>1965</REV_AT_EPOCH><BSTAR>.64668732E-3</BSTAR><MEAN_MOTION_DOT>.7659E-4</MEAN_MOTION_DOT><MEAN_MOTION_DDOT>0</MEAN_MOTION_DDOT></tleParameters></data></segment></body></omm>
<omm id="CCSDS_OMM_VERS" version="2.0">
<header><CREATION_DATE/><ORIGINATOR/></header><body><segment><metadata><OBJECT_NAME>KUIPER-00009</OBJECT_NAME><OBJECT_ID>2025-088B</OBJECT_ID><CENTER_NAME>EARTH</CENTER_NAME><REF_FRAME>TEME</REF_FRAME><TIME_SYSTEM>UTC</TIME_SYSTEM><MEAN_ELEMENT_THEORY>SGP4</MEAN_ELEMENT_THEORY></metadata><data><meanElements><EPOCH>2025-09-01T14:00:01.999872</EPOCH><MEAN_MOTION>14.79895960</MEAN_MOTION><ECCENTRICITY>.00122154</ECCENTRICITY><INCLINATION>51.9007</INCLINATION><RA_OF_ASC_NODE>222.8298</RA_OF_ASC_NODE><ARG_OF_PERICENTER>195.1388</ARG_OF_PERICENTER><MEAN_ANOMALY>265.0412</MEAN_ANOMALY></meanElements><tleParameters><EPHEMERIS_TYPE>0</EPHEMERIS_TYPE><CLASSIFICATION_TYPE>U</CLASSIFICATION_TYPE><NORAD_CAT_ID>63725</NORAD_CAT_ID><ELEMENT_SET_NO>999</ELEMENT_SET_NO><REV_AT_EPOCH>509</REV_AT_EPOCH><BSTAR>-.41044271E-2</BSTAR><MEAN_MOTION_DOT>-.31382E-3</MEAN_MOTION_DOT><MEAN_MOTION_DDOT>0</MEAN_MOTION_DDOT></tleParameters></data></segment></body></omm>
<omm id="CCSDS_OMM_VERS" version="2.0">
<header><CREATION_DATE/><ORIGINATOR/></header><body><segment><metadata><OBJECT_NAME>KUIPER-00010</OBJECT_NAME><OBJECT_ID>2025-088C</OBJECT_ID><CENTER_NAME>EARTH</CENTER_NAME><REF_FRAME>TEME</REF_FRAME><TIME_SYSTEM>UTC</TIME_SYSTEM><MEAN_ELEMENT_THEORY>SGP4</MEAN_ELEMENT_THEORY></metadata><data><meanElements><EPOCH>2025-09-01T07:17:39.297984</EPOCH><MEAN_MOTION>15.36997696</MEAN_MOTION><ECCENTRICITY>.00083913</ECCENTRICITY><INCLINATION>51.8620</INCLINATION><RA_OF_ASC_NODE>213.3388</RA_OF_ASC_NODE><ARG_OF_PERICENTER>193.5282</ARG_OF_PERICENTER><MEAN_ANOMALY>166.5481</MEAN_ANOMALY></meanElements><tleParameters><EPHEMERIS_TYPE>0</EPHEMERIS_TYPE><CLASSIFICATION_TYPE>U</CLASSIFICATION_TYPE><NORAD_CAT_ID>63726</NORAD_CAT_ID><ELEMENT_SET_NO>999</ELEMENT_SET_NO><REV_AT_EPOCH>1950</REV_AT_EPOCH><BSTAR>.7439895E-3</BSTAR><MEAN_MOTION_DOT>.27081E-3</MEAN_MOTION_DOT><MEAN_MOTION_DDOT>0</MEAN_MOTION_DDOT></tleParameters></data></segment></body></omm>
<omm id="CCSDS_OMM_VERS" version="2.0">
<header><CREATION_DATE/><ORIGINATOR/></header><body><segment><metadata><OBJECT_NAME>KUIPER-00011</OBJECT_NAME><OBJECT_ID>2025-088D</OBJECT_ID><CENTER_NAME>EARTH</CENTER_NAME><REF_FRAME>TEME</REF_FRAME><TIME_SYSTEM>UTC</TIME_SYSTEM><MEAN_ELEMENT_THEORY>SGP4</MEAN_ELEMENT_THEORY></metadata><data><meanElements><EPOCH>2025-09-01T14:00:01.999872</EPOCH><MEAN_MOTION>15.23080725</MEAN_MOTION><ECCENTRICITY>.00088894</ECCENTRICITY><INCLINATION>51.8646</INCLINATION><RA_OF_ASC_NODE>213.0352</RA_OF_ASC_NODE><ARG_OF_PERICENTER>194.2435</ARG_OF_PERICENTER><MEAN_ANOMALY>49.1535</MEAN_ANOMALY></meanElements><tleParameters><EPHEMERIS_TYPE>0</EPHEMERIS_TYPE><CLASSIFICATION_TYPE>U</CLASSIFICATION_TYPE><NORAD_CAT_ID>63727</NORAD_CAT_ID><ELEMENT_SET_NO>999</ELEMENT_SET_NO><REV_AT_EPOCH>522</REV_AT_EPOCH><BSTAR>-.66223729E-1</BSTAR><MEAN_MOTION_DOT>-.1433809E-1</MEAN_MOTION_DOT><MEAN_MOTION_DDOT>0</MEAN_MOTION_DDOT></tleParameters></data></segment></body></omm>
<omm id="CCSDS_OMM_VERS" version="2.0">
<header><CREATION_DATE/><ORIGINATOR/></header><body><segment><metadata><OBJECT_NAME>KUIPER-00012</OBJECT_NAME><OBJECT_ID>2025-088E</OBJECT_ID><CENTER_NAME>EARTH</CENTER_NAME><REF_FRAME>TEME</REF_FRAME><TIME_SYSTEM>UTC</TIME_SYSTEM><MEAN_ELEMENT_THEORY>SGP4</MEAN_ELEMENT_THEORY></metadata><data><meanElements><EPOCH>2025-09-01T08:04:39.852768</EPOCH><MEAN_MOTION>15.36740004</MEAN_MOTION><ECCENTRICITY>.00096455</ECCENTRICITY><INCLINATION>51.8543</INCLINATION><RA_OF_ASC_NODE>213.4497</RA_OF_ASC_NODE><ARG_OF_PERICENTER>204.4027</ARG_OF_PERICENTER><MEAN_ANOMALY>155.6504</MEAN_ANOMALY></meanElements><tleParameters><EPHEMERIS_TYPE>0</EPHEMERIS_TYPE><CLASSIFICATION_TYPE>U</CLASSIFICATION_TYPE><NORAD_CAT_ID>63728</NORAD_CAT_ID><ELEMENT_SET_NO>999</ELEMENT_SET_NO><REV_AT_EPOCH>1959</REV_AT_EPOCH><BSTAR>.775769E-3</BSTAR><MEAN_MOTION_DOT>.28032E-3</MEAN_MOTION_DOT><MEAN_MOTION_DDOT>0</MEAN_MOTION_DDOT></tleParameters></data></segment></body></omm>
<omm id="CCSDS_OMM_VERS" version="2.0">
<header><CREATION_DATE/><ORIGINATOR/></header><body><segment><metadata><OBJECT_NAME>KUIPER-00013</OBJECT_NAME><OBJECT_ID>2025-088F</OBJECT_ID><CENTER_NAME>EARTH</CENTER_NAME><REF_FRAME>TEME</REF_FRAME><TIME_SYSTEM>UTC</TIME_SYSTEM><MEAN_ELEMENT_THEORY>SGP4</MEAN_ELEMENT_THEORY></metadata><data><meanElements><EPOCH>2025-09-01T13:29:23.716320</EPOCH><MEAN_MOTION>14.79196170</MEAN_MOTION><ECCENTRICITY>.00085473</ECCENTRICITY><INCLINATION>51.9007</INCLINATION><RA_OF_ASC_NODE>224.3745</RA_OF_ASC_NODE><ARG_OF_PERICENTER>133.5803</ARG_OF_PERICENTER><MEAN_ANOMALY>226.5870</MEAN_ANOMALY></meanElements><tleParameters><EPHEMERIS_TYPE>0</EPHEMERIS_TYPE><CLASSIFICATION_TYPE>U</CLASSIFICATION_TYPE><NORAD_CAT_ID>63729</NORAD_CAT_ID><ELEMENT_SET_NO>999</ELEMENT_SET_NO><REV_AT_EPOCH>1956</REV_AT_EPOCH><BSTAR>-.60013303E-2</BSTAR><MEAN_MOTION_DOT>-.44909E-3</MEAN_MOTION_DOT><MEAN_MOTION_DDOT>0</MEAN_MOTION_DDOT></tleParameters></data></segment></body></omm>
<omm id="CCSDS_OMM_VERS" version="2.0">
<header><CREATION_DATE/><ORIGINATOR/></header><body><segment><metadata><OBJECT_NAME>KUIPER-00014</OBJECT_NAME><OBJECT_ID>2025-088G</OBJECT_ID><CENTER_NAME>EARTH</CENTER_NAME><REF_FRAME>TEME</REF_FRAME><TIME_SYSTEM>UTC</TIME_SYSTEM><MEAN_ELEMENT_THEORY>SGP4</MEAN_ELEMENT_THEORY></metadata><data><meanElements><EPOCH>2025-08-31T16:25:17.998176</EPOCH><MEAN_MOTION>14.79851060</MEAN_MOTION><ECCENTRICITY>.00081298</ECCENTRICITY><INCLINATION>51.9011</INCLINATION><RA_OF_ASC_NODE>229.2366</RA_OF_ASC_NODE><ARG_OF_PERICENTER>180.3305</ARG_OF_PERICENTER><MEAN_ANOMALY>179.7653</MEAN_ANOMALY></meanElements><tleParameters><EPHEMERIS_TYPE>0</EPHEMERIS_TYPE><CLASSIFICATION_TYPE>U</CLASSIFICATION_TYPE><NORAD_CAT_ID>63730</NORAD_CAT_ID><ELEMENT_SET_NO>999</ELEMENT_SET_NO><REV_AT_EPOCH>1923</REV_AT_EPOCH><BSTAR>.38795772E-3</BSTAR><MEAN_MOTION_DOT>.2732E-4</MEAN_MOTION_DOT><MEAN_MOTION_DDOT>0</MEAN_MOTION_DDOT></tleParameters></data></segment></body></omm>
<omm id="CCSDS_OMM_VERS" version="2.0">
<header><CREATION_DATE/><ORIGINATOR/></header><body><segment><metadata><OBJECT_NAME>KUIPER-00015</OBJECT_NAME><OBJECT_ID>2025-088H</OBJECT_ID><CENTER_NAME>EARTH</CENTER_NAME><REF_FRAME>TEME</REF_FRAME><TIME_SYSTEM>UTC</TIME_SYSTEM><MEAN_ELEMENT_THEORY>SGP4</MEAN_ELEMENT_THEORY></metadata><data><meanElements><EPOCH>2025-09-01T05:48:44.559360</EPOCH><MEAN_MOTION>14.81233569</MEAN_MOTION><ECCENTRICITY>.00104736</ECCENTRICITY><INCLINATION>51.8985</INCLINATION><RA_OF_ASC_NODE>238.9554</RA_OF_ASC_NODE><ARG_OF_PERICENTER>169.9897</ARG_OF_PERICENTER><MEAN_ANOMALY>190.1276</MEAN_ANOMALY></meanElements><tleParameters><EPHEMERIS_TYPE>0</EPHEMERIS_TYPE><CLASSIFICATION_TYPE>U</CLASSIFICATION_TYPE><NORAD_CAT_ID>63731</NORAD_CAT_ID><ELEMENT_SET_NO>999</ELEMENT_SET_NO><REV_AT_EPOCH>1960</REV_AT_EPOCH><BSTAR>.18671237E-3</BSTAR><MEAN_MOTION_DOT>.1243E-4</MEAN_MOTION_DOT><MEAN_MOTION_DDOT>0</MEAN_MOTION_DDOT></tleParameters></data></segment></body></omm>

</ndm>
